{
  "type": "FeatureCollection",
  "features": [
    {
      "type": "Feature",
      "properties": {
        "norad_id": 33412,
        "name": "COSMO-SKYMED 3",
        "group": "resource",
        "lat": -24.87074803365787,
        "lon": 12.958964636155397,
        "alt_km": 546.4011996381178,
        "timestamp": "2025-12-12T05:47:28.428617+00:00",
        "meta_object_name": "COSMO-SKYMED 3",
        "meta_object_id": "2008-054A",
        "meta_epoch": "2025-12-12T00:05:52.279584",
        "meta_mean_motion": 15.05353295,
        "meta_eccentricity": 0.00159783,
        "meta_inclination": 97.8469,
        "meta_ra_of_asc_node": 196.3833,
        "meta_arg_of_pericenter": 176.3385,
        "meta_mean_anomaly": 183.7961,
        "meta_ephemeris_type": 0,
        "meta_classification_type": "U",
        "meta_norad_cat_id": 33412,
        "meta_element_set_no": 999,
        "meta_rev_at_epoch": 92876,
        "meta_bstar": 0.00090209693,
        "meta_mean_motion_dot": 0.00012909,
        "meta_mean_motion_ddot": 0,
        "tle_line1": "1 33412U 08054A   25346.00407731  .00012909  00000+0  90210-3 0  9997",
        "tle_line2": "2 33412  97.8469 196.3833 0015978 176.3385 183.7961 15.05353295928769"
      },
      "geometry": {
        "type": "Point",
        "coordinates": [
          12.958964636155397,
          -24.87074803365787
        ]
      }
    },
    {
      "type": "Feature",
      "properties": {
        "norad_id": 33446,
        "name": "YAOGAN-4",
        "group": "resource",
        "lat": -46.18147239004721,
        "lon": 88.00614244659616,
        "alt_km": 629.0752710763827,
        "timestamp": "2025-12-12T05:47:28.428628+00:00",
        "meta_object_name": "YAOGAN-4",
        "meta_object_id": "2008-061A",
        "meta_epoch": "2025-12-11T19:03:10.073376",
        "meta_mean_motion": 14.82677773,
        "meta_eccentricity": 0.00136364,
        "meta_inclination": 97.9179,
        "meta_ra_of_asc_node": 275.9025,
        "meta_arg_of_pericenter": 326.6885,
        "meta_mean_anomaly": 33.3469,
        "meta_ephemeris_type": 0,
        "meta_classification_type": "U",
        "meta_norad_cat_id": 33446,
        "meta_element_set_no": 999,
        "meta_rev_at_epoch": 91789,
        "meta_bstar": 0.00029431307,
        "meta_mean_motion_dot": 2.323e-05,
        "meta_mean_motion_ddot": 0,
        "tle_line1": "1 33446U 08061A   25345.79386659  .00002323  00000+0  29431-3 0  9998",
        "tle_line2": "2 33446  97.9179 275.9025 0013636 326.6885  33.3469 14.82677773917895"
      },
      "geometry": {
        "type": "Point",
        "coordinates": [
          88.00614244659616,
          -46.18147239004721
        ]
      }
    },
    {
      "type": "Feature",
      "properties": {
        "norad_id": 33492,
        "name": "GOSAT (IBUKI)",
        "group": "resource",
        "lat": -53.33030824622479,
        "lon": 105.84626533289097,
        "alt_km": 676.4207625425352,
        "timestamp": "2025-12-12T05:47:28.428638+00:00",
        "meta_object_name": "GOSAT (IBUKI)",
        "meta_object_id": "2009-002A",
        "meta_epoch": "2025-12-11T21:51:20.233440",
        "meta_mean_motion": 14.67552551,
        "meta_eccentricity": 9.406e-05,
        "meta_inclination": 98.0768,
        "meta_ra_of_asc_node": 94.5254,
        "meta_arg_of_pericenter": 91.0817,
        "meta_mean_anomaly": 269.0495,
        "meta_ephemeris_type": 0,
        "meta_classification_type": "U",
        "meta_norad_cat_id": 33492,
        "meta_element_set_no": 999,
        "meta_rev_at_epoch": 90399,
        "meta_bstar": 0.00025937182,
        "meta_mean_motion_dot": 1.423e-05,
        "meta_mean_motion_ddot": 0,
        "tle_line1": "1 33492U 09002A   25345.91065085  .00001423  00000+0  25937-3 0  9993",
        "tle_line2": "2 33492  98.0768  94.5254 0000940  91.0817 269.0495 14.67552551903995"
      },
      "geometry": {
        "type": "Point",
        "coordinates": [
          105.84626533289097,
          -53.33030824622479
        ]
      }
    },
    {
      "type": "Feature",
      "properties": {
        "norad_id": 35681,
        "name": "DEIMOS-1",
        "group": "resource",
        "lat": 10.271040784744788,
        "lon": 145.45987157604034,
        "alt_km": 646.2174750678369,
        "timestamp": "2025-12-12T05:47:28.428650+00:00",
        "meta_object_name": "DEIMOS-1",
        "meta_object_id": "2009-041A",
        "meta_epoch": "2025-12-11T23:13:54.203808",
        "meta_mean_motion": 14.7495213,
        "meta_eccentricity": 0.00027278,
        "meta_inclination": 97.715,
        "meta_ra_of_asc_node": 146.607,
        "meta_arg_of_pericenter": 80.9181,
        "meta_mean_anomaly": 279.2337,
        "meta_ephemeris_type": 0,
        "meta_classification_type": "U",
        "meta_norad_cat_id": 35681,
        "meta_element_set_no": 999,
        "meta_rev_at_epoch": 87928,
        "meta_bstar": 0.00022455325,
        "meta_mean_motion_dot": 1.461e-05,
        "meta_mean_motion_ddot": 0,
        "tle_line1": "1 35681U 09041A   25345.96798847  .00001461  00000+0  22455-3 0  9996",
        "tle_line2": "2 35681  97.7150 146.6070 0002727  80.9181 279.2337 14.74952130879286"
      },
      "geometry": {
        "type": "Point",
        "coordinates": [
          145.45987157604034,
          10.271040784744788
        ]
      }
    },
    {
      "type": "Feature",
      "properties": {
        "norad_id": 35682,
        "name": "DUBAISAT-1",
        "group": "resource",
        "lat": -53.3488715688034,
        "lon": 127.79332792139297,
        "alt_km": 646.7829576585245,
        "timestamp": "2025-12-12T05:47:28.428661+00:00",
        "meta_object_name": "DUBAISAT-1",
        "meta_object_id": "2009-041B",
        "meta_epoch": "2025-12-11T23:31:17.778432",
        "meta_mean_motion": 14.7460116,
        "meta_eccentricity": 0.00096002,
        "meta_inclination": 97.9785,
        "meta_ra_of_asc_node": 116.6709,
        "meta_arg_of_pericenter": 317.2917,
        "meta_mean_anomaly": 42.7545,
        "meta_ephemeris_type": 0,
        "meta_classification_type": "U",
        "meta_norad_cat_id": 35682,
        "meta_element_set_no": 999,
        "meta_rev_at_epoch": 87750,
        "meta_bstar": 0.00034685046,
        "meta_mean_motion_dot": 2.263e-05,
        "meta_mean_motion_ddot": 0,
        "tle_line1": "1 35682U 09041B   25345.98006688  .00002263  00000+0  34685-3 0  9993",
        "tle_line2": "2 35682  97.9785 116.6709 0009600 317.2917  42.7545 14.74601160877500"
      },
      "geometry": {
        "type": "Point",
        "coordinates": [
          127.79332792139297,
          -53.3488715688034
        ]
      }
    },
    {
      "type": "Feature",
      "properties": {
        "norad_id": 35931,
        "name": "OCEANSAT-2",
        "group": "resource",
        "lat": -75.33512862864053,
        "lon": 133.35217009850098,
        "alt_km": 912.4767061375906,
        "timestamp": "2025-12-12T05:47:28.428672+00:00",
        "meta_object_name": "OCEANSAT-2",
        "meta_object_id": "2009-051A",
        "meta_epoch": "2025-12-11T23:24:58.517856",
        "meta_mean_motion": 13.9962485,
        "meta_eccentricity": 0.00162388,
        "meta_inclination": 98.2223,
        "meta_ra_of_asc_node": 346.6538,
        "meta_arg_of_pericenter": 47.0605,
        "meta_mean_anomaly": 313.1921,
        "meta_ephemeris_type": 0,
        "meta_classification_type": "U",
        "meta_norad_cat_id": 35931,
        "meta_element_set_no": 999,
        "meta_rev_at_epoch": 85314,
        "meta_bstar": -6.7295441e-05,
        "meta_mean_motion_dot": -1.36e-06,
        "meta_mean_motion_ddot": 0,
        "tle_line1": "1 35931U 09051A   25345.97567729 -.00000136  00000+0 -67295-4 0  9991",
        "tle_line2": "2 35931  98.2223 346.6538 0016238  47.0605 313.1921 13.99624850853144"
      },
      "geometry": {
        "type": "Point",
        "coordinates": [
          133.35217009850098,
          -75.33512862864053
        ]
      }
    },
    {
      "type": "Feature",
      "properties": {
        "norad_id": 35946,
        "name": "WORLDVIEW-2 (WV-2)",
        "group": "resource",
        "lat": -48.547609174659144,
        "lon": 67.05656774808821,
        "alt_km": 774.73228460478,
        "timestamp": "2025-12-12T05:47:28.428682+00:00",
        "meta_object_name": "WORLDVIEW-2 (WV-2)",
        "meta_object_id": "2009-055A",
        "meta_epoch": "2025-12-11T23:20:20.194080",
        "meta_mean_motion": 14.37723811,
        "meta_eccentricity": 0.00051472,
        "meta_inclination": 98.4791,
        "meta_ra_of_asc_node": 57.0679,
        "meta_arg_of_pericenter": 72.3331,
        "meta_mean_anomaly": 287.8418,
        "meta_ephemeris_type": 0,
        "meta_classification_type": "U",
        "meta_norad_cat_id": 35946,
        "meta_element_set_no": 999,
        "meta_rev_at_epoch": 84874,
        "meta_bstar": 0.00010642203,
        "meta_mean_motion_dot": 2.77e-06,
        "meta_mean_motion_ddot": 0,
        "tle_line1": "1 35946U 09055A   25345.97245595  .00000277  00000+0  10642-3 0  9992",
        "tle_line2": "2 35946  98.4791  57.0679 0005147  72.3331 287.8418 14.37723811848743"
      },
      "geometry": {
        "type": "Point",
        "coordinates": [
          67.05656774808821,
          -48.547609174659144
        ]
      }
    }
  ]
}